COSMOS 2242             
1 22626U 93024A   26095.11233588  .00002861  00000+0  24797-3 0  9997
2 22626  82.5179 241.4358 0015565 212.1552 147.8722 14.96677614784347
SL-16 R/B               
1 22803U 93059B   26095.01541528  .00000138  00000+0  92008-4 0  9993
2 22803  70.9905 315.6135 0017011 177.5347 182.5864 14.17235099683265
ARIANE 40 R/B           
1 22830U 93061H   26095.16422260  .00000318  00000+0  13221-3 0  9992
2 22830  98.4868 163.5230 0010417 199.7517 160.3265 14.32876296697892
COSMOS 2278             
1 23087U 94023A   26095.18981139  .00000030  00000+0  40419-4 0  9994
2 23087  71.0504 119.6562 0009368 334.3951  25.6707 14.14375005648558
SL-16 R/B               
1 23088U 94023B   26095.22433716  .00000133  00000+0  93088-4 0  9997
2 23088  71.0031  15.1611 0005605 262.5818  97.4667 14.15019934649845
SL-16 R/B               
1 23343U 94074B   26095.10451293  .00000638  00000+0  92107-4 0  9995
2 23343  97.7069 124.8479 0007739 127.8653 298.4830 14.79439979691156
SL-16 R/B               
1 23405U 94077B   26095.26625167 -.00000210  00000+0 -82775-4 0  9995
2 23405  70.9818 296.5780 0001531 187.6991 172.4108 14.15567748619992
ARIANE 40+ R/B          
1 23561U 95021B   26095.21629793  .00000429  00000+0  15069-3 0  9993
2 23561  98.4453 166.3335 0007783  68.2152 307.9976 14.39792961623067
SL-16 R/B               
1 23705U 95058B   26095.27454683 -.00000001  00000+0  23806-4 0  9999
2 23705  71.0190 124.4429 0010341  77.0992 283.1286 14.15497863571614
SL-16 R/B               
1 24298U 96051B   26095.29895806  .00000093  00000+0  77060-4 0  9990
2 24298  70.7580 118.9184 0013048 104.2012 256.0558 14.12423581525400
ORBVIEW 2 (SEASTAR)     
1 24883U 97037A   26095.18330075  .00000385  00000+0  14999-3 0  9990
2 24883  98.8613 260.2035 0002025  11.6558 348.4673 14.35514802512270
SL-16 R/B               
1 25400U 98043G   26095.11295509  .00000091  00000+0  56928-4 0  9992
2 25400  98.8299  48.6711 0008939 301.5398  58.4908 14.26056237442755
